{"type": "FeatureCollection", "features": [ {"type": "Feature", "properties": {"norad_id": 37834, "name": "INTELSAT 18 (IS-18)", "group": "intelsat", "lat": -0.029582722159883647, "lon": -165.68006057475554, "alt_km": 35786.62076620561, "timestamp": "2025-12-21T18:54:58.161079+00:00", "meta": {"OBJECT_NAME": "INTELSAT 18 (IS-18)", "OBJECT_ID": "2011-056A", "EPOCH": "2025-12-21T08:06:38.568096", "MEAN_MOTION": 1.00272475, "ECCENTRICITY": 0.00017157, "INCLINATION": 0.0314, "RA_OF_ASC_NODE": 281.2642, "ARG_OF_PERICENTER": 9.2626, "MEAN_ANOMALY": 101.2942, "EPHEMERIS_TYPE": 0, "CLASSIFICATION_TYPE": "U", "NORAD_CAT_ID": 37834, "ELEMENT_SET_NO": 999, "REV_AT_EPOCH": 5202, "BSTAR": 0, "MEAN_MOTION_DOT": 7.6e-07, "MEAN_MOTION_DDOT": 0}, "tle": {"line1": "1 37834U 11056A   25355.33794639  .00000076  00000+0  00000+0 0  9993", "line2": "2 37834   0.0314 281.2642 0001715   9.2626 101.2942  1.00272475 52025"}}, "geometry": {"type": "Point", "coordinates": [-165.68006057475554, -0.029582722159883647]}}, {"type": "Feature", "properties": {"norad_id": 38098, "name": "INTELSAT 22 (IS-22)", "group": "intelsat", "lat": 0.03202832058551983, "lon": 86.42956226483402, "alt_km": 35793.89392047078, "timestamp": "2025-12-21T18:54:58.161091+00:00", "meta": {"OBJECT_NAME": "INTELSAT 22 (IS-22)", "OBJECT_ID": "2012-011A", "EPOCH": "2025-12-21T08:24:19.414944", "MEAN_MOTION": 1.00270608, "ECCENTRICITY": 0.0001803, "INCLINATION": 0.016, "RA_OF_ASC_NODE": 43.4042, "ARG_OF_PERICENTER": 234.4784, "MEAN_ANOMALY": 10.4596, "EPHEMERIS_TYPE": 0, "CLASSIFICATION_TYPE": "U", "NORAD_CAT_ID": 38098, "ELEMENT_SET_NO": 999, "REV_AT_EPOCH": 540, "BSTAR": 0, "MEAN_MOTION_DOT": -3.6e-07, "MEAN_MOTION_DDOT": 0}, "tle": {"line1": "1 38098U 12011A   25355.35022471 -.00000036  00000+0  00000+0 0  9995", "line2": "2 38098   0.0160  43.4042 0001803 234.4784  10.4596  1.00270608  5406"}}, "geometry": {"type": "Point", "coordinates": [86.42956226483402, 0.03202832058551983]}}, {"type": "Feature", "properties": {"norad_id": 38356, "name": "INTELSAT 19 (IS-19)", "group": "intelsat", "lat": 0.008301834067049586, "lon": -179.6966198166407, "alt_km": 35785.630009850734, "timestamp": "2025-12-21T18:54:58.161102+00:00", "meta": {"OBJECT_NAME": "INTELSAT 19 (IS-19)", "OBJECT_ID": "2012-030A", "EPOCH": "2025-12-21T13:33:38.680992", "MEAN_MOTION": 1.00271321, "ECCENTRICITY": 0.00027559, "INCLINATION": 0.0111, "RA_OF_ASC_NODE": 21.6786, "ARG_OF_PERICENTER": 245.7502, "MEAN_ANOMALY": 192.3636, "EPHEMERIS_TYPE": 0, "CLASSIFICATION_TYPE": "U", "NORAD_CAT_ID": 38356, "ELEMENT_SET_NO": 999, "REV_AT_EPOCH": 4867, "BSTAR": 0, "MEAN_MOTION_DOT": -3.4e-07, "MEAN_MOTION_DDOT": 0}, "tle": {"line1": "1 38356U 12030A   25355.56503103 -.00000034  00000+0  00000+0 0  9990", "line2": "2 38356   0.0111  21.6786 0002755 245.7502 192.3636  1.00271321 48676"}}, "geometry": {"type": "Point", "coordinates": [-179.6966198166407, 0.008301834067049586]}}, {"type": "Feature", "properties": {"norad_id": 38740, "name": "INTELSAT 20 (IS-20)", "group": "intelsat", "lat": 0.02099160212943247, "lon": 82.78440435002571, "alt_km": 35788.66978600109, "timestamp": "2025-12-21T18:54:58.161114+00:00", "meta": {"OBJECT_NAME": "INTELSAT 20 (IS-20)", "OBJECT_ID": "2012-043A", "EPOCH": "2025-12-21T11:48:40.719744", "MEAN_MOTION": 1.00271315, "ECCENTRICITY": 0.00034731, "INCLINATION": 0.0082, "RA_OF_ASC_NODE": 53.6994, "ARG_OF_PERICENTER": 128.8194, "MEAN_ANOMALY": 153.4487, "EPHEMERIS_TYPE": 0, "CLASSIFICATION_TYPE": "U", "NORAD_CAT_ID": 38740, "ELEMENT_SET_NO": 999, "REV_AT_EPOCH": 4896, "BSTAR": 0, "MEAN_MOTION_DOT": -2e-08, "MEAN_MOTION_DDOT": 0}, "tle": {"line1": "1 38740U 12043A   25355.49213796 -.00000002  00000+0  00000+0 0  9994", "line2": "2 38740   0.0082  53.6994 0003473 128.8194 153.4487  1.00271315 48969"}}, "geometry": {"type": "Point", "coordinates": [82.78440435002571, 0.02099160212943247]}}, {"type": "Feature", "properties": {"norad_id": 38749, "name": "INTELSAT 21 (IS-21)", "group": "intelsat", "lat": -0.0042255342964152825, "lon": -43.64698336119742, "alt_km": 35782.361122999704, "timestamp": "2025-12-21T18:54:58.161125+00:00", "meta": {"OBJECT_NAME": "INTELSAT 21 (IS-21)", "OBJECT_ID": "2012-045A", "EPOCH": "2025-12-21T11:12:36.673632", "MEAN_MOTION": 1.0027192, "ECCENTRICITY": 0.00015247, "INCLINATION": 0.0228, "RA_OF_ASC_NODE": 292.4325, "ARG_OF_PERICENTER": 329.0019, "MEAN_ANOMALY": 299.0063, "EPHEMERIS_TYPE": 0, "CLASSIFICATION_TYPE": "U", "NORAD_CAT_ID": 38749, "ELEMENT_SET_NO": 999, "REV_AT_EPOCH": 4874, "BSTAR": 0, "MEAN_MOTION_DOT": -2.62e-06, "MEAN_MOTION_DDOT": 0}, "tle": {"line1": "1 38749U 12045A   25355.46709113 -.00000262  00000+0  00000+0 0  9993", "line2": "2 38749   0.0228 292.4325 0001524 329.0019 299.0063  1.00271920 48742"}}, "geometry": {"type": "Point", "coordinates": [-43.64698336119742, -0.0042255342964152825]}}, {"type": "Feature", "properties": {"norad_id": 38867, "name": "INTELSAT 23 (IS-23)", "group": "intelsat", "lat": -0.02873699323172621, "lon": -38.64060618061616, "alt_km": 35784.247449226816, "timestamp": "2025-12-21T18:54:58.161137+00:00", "meta": {"OBJECT_NAME": "INTELSAT 23 (IS-23)", "OBJECT_ID": "2012-057A", "EPOCH": "2025-12-21T11:13:59.042208", "MEAN_MOTION": 1.00269242, "ECCENTRICITY": 6.585e-05, "INCLINATION": 0.0169, "RA_OF_ASC_NODE": 64.9752, "ARG_OF_PERICENTER": 235.2005, "MEAN_ANOMALY": 265.6301, "EPHEMERIS_TYPE": 0, "CLASSIFICATION_TYPE": "U", "NORAD_CAT_ID": 38867, "ELEMENT_SET_NO": 999, "REV_AT_EPOCH": 4817, "BSTAR": 0, "MEAN_MOTION_DOT": -2.62e-06, "MEAN_MOTION_DDOT": 0}, "tle": {"line1": "1 38867U 12057A   25355.46804447 -.00000262  00000+0  00000+0 0  9993", "line2": "2 38867   0.0169  64.9752 0000658 235.2005 265.6301  1.00269242 48178"}}, "geometry": {"type": "Point", "coordinates": [-38.64060618061616, -0.02873699323172621]}}, {"type": "Feature", "properties": {"norad_id": 39360, "name": "FM-6", "group": "intelsat", "lat": -0.017491487382329824, "lon": -101.7832794648105, "alt_km": 35782.96080986074, "timestamp": "2025-12-21T18:54:58.161148+00:00", "meta": {"OBJECT_NAME": "FM-6", "OBJECT_ID": "2013-058A", "EPOCH": "2025-12-21T10:49:59.562048", "MEAN_MOTION": 1.00273303, "ECCENTRICITY": 0.00030477, "INCLINATION": 0.0117, "RA_OF_ASC_NODE": 65.8213, "ARG_OF_PERICENTER": 114.5077, "MEAN_ANOMALY": 316.2838, "EPHEMERIS_TYPE": 0, "CLASSIFICATION_TYPE": "U", "NORAD_CAT_ID": 39360, "ELEMENT_SET_NO": 999, "REV_AT_EPOCH": 4429, "BSTAR": 0, "MEAN_MOTION_DOT": 5e-08, "MEAN_MOTION_DDOT": 0}, "tle": {"line1": "1 39360U 13058A   25355.45138382  .00000005  00000+0  00000+0 0  9995", "line2": "2 39360   0.0117  65.8213 0003047 114.5077 316.2838  1.00273303 44295"}}, "geometry": {"type": "Point", "coordinates": [-101.7832794648105, -0.017491487382329824]}}, {"type": "Feature", "properties": {"norad_id": 40271, "name": "INTELSAT 30 (IS-30)", "group": "intelsat", "lat": -0.040896362157181, "lon": -80.71455504916572, "alt_km": 35793.02320141665, "timestamp": "2025-12-21T18:54:58.161160+00:00", "meta": {"OBJECT_NAME": "INTELSAT 30 (IS-30)", "OBJECT_ID": "2014-062A", "EPOCH": "2025-12-21T02:28:25.779360", "MEAN_MOTION": 1.00271873, "ECCENTRICITY": 0.00016539, "INCLINATION": 0.0153, "RA_OF_ASC_NODE": 22.7027, "ARG_OF_PERICENTER": 68.3073, "MEAN_ANOMALY": 300.9758, "EPHEMERIS_TYPE": 0, "CLASSIFICATION_TYPE": "U", "NORAD_CAT_ID": 40271, "ELEMENT_SET_NO": 999, "REV_AT_EPOCH": 500, "BSTAR": 0, "MEAN_MOTION_DOT": -1.28e-06, "MEAN_MOTION_DDOT": 0}, "tle": {"line1": "1 40271U 14062A   25355.10307615 -.00000128  00000+0  00000+0 0  9990", "line2": "2 40271   0.0153  22.7027 0001653  68.3073 300.9758  1.00271873  5003"}}, "geometry": {"type": "Point", "coordinates": [-80.71455504916572, -0.040896362157181]}}, {"type": "Feature", "properties": {"norad_id": 40333, "name": "DIRECTV 14", "group": "intelsat", "lat": -0.027580618949340035, "lon": -84.88219220223046, "alt_km": 35787.39545033497, "timestamp": "2025-12-21T18:54:58.161172+00:00", "meta": {"OBJECT_NAME": "DIRECTV 14", "OBJECT_ID": "2014-078B", "EPOCH": "2025-12-21T11:54:52.391808", "MEAN_MOTION": 1.00270511, "ECCENTRICITY": 2.604e-05, "INCLINATION": 0.0008, "RA_OF_ASC_NODE": 6.7961, "ARG_OF_PERICENTER": 119.3735, "MEAN_ANOMALY": 43.6445, "EPHEMERIS_TYPE": 0, "CLASSIFICATION_TYPE": "U", "NORAD_CAT_ID": 40333, "ELEMENT_SET_NO": 999, "REV_AT_EPOCH": 4026, "BSTAR": 0, "MEAN_MOTION_DOT": -1.03e-06, "MEAN_MOTION_DDOT": 0}, "tle": {"line1": "1 40333U 14078B   25355.49643972 -.00000103  00000+0  00000+0 0  9990", "line2": "2 40333   0.0008   6.7961 0000260 119.3735  43.6445  1.00270511 40264"}}, "geometry": {"type": "Point", "coordinates": [-84.88219220223046, -0.027580618949340035]}}, {"type": "Feature", "properties": {"norad_id": 40663, "name": "DIRECTV 15", "group": "intelsat", "lat": -0.04959771500463119, "lon": -88.54293110201327, "alt_km": 35787.6236972459, "timestamp": "2025-12-21T18:54:58.161183+00:00", "meta": {"OBJECT_NAME": "DIRECTV 15", "OBJECT_ID": "2015-026A", "EPOCH": "2025-12-21T08:19:00.875424", "MEAN_MOTION": 1.00269643, "ECCENTRICITY": 3.298e-05, "INCLINATION": 0.0248, "RA_OF_ASC_NODE": 19.5507, "ARG_OF_PERICENTER": 120.1507, "MEAN_ANOMALY": 332.3403, "EPHEMERIS_TYPE": 0, "CLASSIFICATION_TYPE": "U", "NORAD_CAT_ID": 40663, "ELEMENT_SET_NO": 999, "REV_AT_EPOCH": 3868, "BSTAR": 0, "MEAN_MOTION_DOT": 0, "MEAN_MOTION_DDOT": 0}, "tle": {"line1": "1 40663U 15026A   25355.34653791  .00000000  00000+0  00000+0 0  9999", "line2": "2 40663   0.0248  19.5507 0000329 120.1507 332.3403  1.00269643 38686"}}, "geometry": {"type": "Point", "coordinates": [-88.54293110201327, -0.04959771500463119]}}]}